[{"OBJECT_NAME":"SATELIOT_4","OBJECT_ID":"2024-149BX","EPOCH":"2026-03-09T17:48:54.333792","MEAN_MOTION":14.96254023,"ECCENTRICITY":0.00023903,"INCLINATION":97.6789,"RA_OF_ASC_NODE":145.1106,"ARG_OF_PERICENTER":45.2073,"MEAN_ANOMALY":314.9342,"EPHEMERIS_TYPE":0,"CLASSIFICATION_TYPE":"U","NORAD_CAT_ID":60537,"ELEMENT_SET_NO":999,"REV_AT_EPOCH":8510,"BSTAR":0.00026256084,"MEAN_MOTION_DOT":2.907e-5,"MEAN_MOTION_DDOT":0},{"OBJECT_NAME":"CZ-6 R\/B","OBJECT_ID":"2021-070C","EPOCH":"2026-03-09T22:39:34.013952","MEAN_MOTION":14.48570098,"ECCENTRICITY":0.02140166,"INCLINATION":89.0453,"RA_OF_ASC_NODE":221.7666,"ARG_OF_PERICENTER":115.8557,"MEAN_ANOMALY":246.489,"EPHEMERIS_TYPE":0,"CLASSIFICATION_TYPE":"U","NORAD_CAT_ID":49061,"ELEMENT_SET_NO":999,"REV_AT_EPOCH":24273,"BSTAR":0.00018180726,"MEAN_MOTION_DOT":9.38e-6,"MEAN_MOTION_DDOT":0}]
